COSMOS 2058             
1 20465U 90010A   26073.41512026  .00004719  00000+0  27794-3 0  9998
2 20465  82.4666  42.7712 0008658 328.9200  31.1516 15.11367677942955
SL-14 R/B               
1 20466U 90010B   26073.61049077  .00000538  00000+0  62354-4 0  9999
2 20466  82.4987 262.7649 0018354 284.8906  75.0276 14.83573891929211
SL-14 R/B               
1 20511U 90018B   26073.49804053  .00000584  00000+0  70168-4 0  9990
2 20511  82.5211 218.5951 0017605  77.4954 282.8228 14.82150757923293
HST                     
1 20580U 90037B   26073.51012837  .00010115  00000+0  33490-3 0  9998
2 20580  28.4725   7.1142 0001767 174.4342 185.6273 15.29568851774051
SL-16 R/B               
1 20625U 90046B   26073.57492899 -.00000066  00000+0 -92581-5 0  9998
2 20625  70.9977 287.6543 0016186 293.1130  66.8286 14.15011248849084
COSMOS 2084             
1 20663U 90055A   26073.03885825  .00002680  00000+0  19798-3 0  9995
2 20663  62.7915 320.7451 0016403 191.1191 168.9550 15.05678754936974
SL-6 R/B(2)             
1 20666U 90055D   26073.62599090  .00002697  00000+0  20945-3 0  9993
2 20666  62.7822 237.0631 0025587 348.2392  11.8106 15.03622367938933
SL-8 R/B                
1 20775U 90078B   26073.54781919  .00021352  00000+0  62971-3 0  9997
2 20775  82.8997 246.9403 0361186 357.6587   2.2920 14.89236154810029
SL-8 R/B                
1 21088U 91006B   26073.55349169  .00000069  00000+0  53956-4 0  9991
2 21088  82.9464 166.4302 0022788  25.0957 345.8145 13.77494931764747
OKEAN-3                 
1 21397U 91039A   26073.66610946  .00004258  00000+0  29890-3 0  9999
2 21397  82.5202 332.0231 0013489 318.7791  41.2416 15.04847916865785
COSMOS 2151             
1 21422U 91042A   26073.61938996  .00002976  00000+0  23607-3 0  9990
2 21422  82.4929  78.9192 0013721  48.5683 311.6717 15.00127307863932
SL-14 R/B               
1 21423U 91042B   26073.48454008  .00000578  00000+0  70050-4 0  9994
2 21423  82.4933 215.6861 0016054 221.7557 138.2433 14.81835276853787
